1 43262U 18031D   23134.17401357  .00001560  00000+0  23069-3 0  9995
2 43262  97.8634 208.0064 0004653  58.9230 301.2462 14.76571995275939